[{"OBJECT_NAME":"GSAT0215 (GALILEO 19)","OBJECT_ID":"2017-079A","EPOCH":"2026-03-02T20:15:45.963072","MEAN_MOTION":1.70474455,"ECCENTRICITY":6.129e-5,"INCLINATION":55.1089,"RA_OF_ASC_NODE":224.4297,"ARG_OF_PERICENTER":12.6993,"MEAN_ANOMALY":347.2429,"EPHEMERIS_TYPE":0,"CLASSIFICATION_TYPE":"U","NORAD_CAT_ID":43055,"ELEMENT_SET_NO":999,"REV_AT_EPOCH":5117,"BSTAR":0,"MEAN_MOTION_DOT":1.0e-7,"MEAN_MOTION_DDOT":0},{"OBJECT_NAME":"GSAT0216 (GALILEO 20)","OBJECT_ID":"2017-079B","EPOCH":"2026-03-01T23:05:47.137632","MEAN_MOTION":1.70474524,"ECCENTRICITY":0.00016887,"INCLINATION":55.1088,"RA_OF_ASC_NODE":224.454,"ARG_OF_PERICENTER":322.1798,"MEAN_ANOMALY":37.7539,"EPHEMERIS_TYPE":0,"CLASSIFICATION_TYPE":"U","NORAD_CAT_ID":43056,"ELEMENT_SET_NO":999,"REV_AT_EPOCH":5117,"BSTAR":0,"MEAN_MOTION_DOT":1.3e-7,"MEAN_MOTION_DDOT":0},{"OBJECT_NAME":"GSAT0217 (GALILEO 21)","OBJECT_ID":"2017-079C","EPOCH":"2026-03-03T08:33:00.443232","MEAN_MOTION":1.70474491,"ECCENTRICITY":0.00021069,"INCLINATION":55.1084,"RA_OF_ASC_NODE":224.4135,"ARG_OF_PERICENTER":356.8681,"MEAN_ANOMALY":3.0693,"EPHEMERIS_TYPE":0,"CLASSIFICATION_TYPE":"U","NORAD_CAT_ID":43057,"ELEMENT_SET_NO":999,"REV_AT_EPOCH":5118,"BSTAR":0,"MEAN_MOTION_DOT":9.0e-8,"MEAN_MOTION_DDOT":0},{"OBJECT_NAME":"GSAT0218 (GALILEO 22)","OBJECT_ID":"2017-079D","EPOCH":"2026-03-01T05:31:11.512704","MEAN_MOTION":1.70474409,"ECCENTRICITY":0.0001889,"INCLINATION":55.1053,"RA_OF_ASC_NODE":224.4697,"ARG_OF_PERICENTER":305.5636,"MEAN_ANOMALY":54.3694,"EPHEMERIS_TYPE":0,"CLASSIFICATION_TYPE":"U","NORAD_CAT_ID":43058,"ELEMENT_SET_NO":999,"REV_AT_EPOCH":5117,"BSTAR":0,"MEAN_MOTION_DOT":1.8e-7,"MEAN_MOTION_DDOT":0},{"OBJECT_NAME":"GSAT0221 (GALILEO 25)","OBJECT_ID":"2018-060A","EPOCH":"2026-02-28T13:07:14.911104","MEAN_MOTION":1.70475369,"ECCENTRICITY":0.00058048,"INCLINATION":57.2051,"RA_OF_ASC_NODE":344.7173,"ARG_OF_PERICENTER":306.7848,"MEAN_ANOMALY":53.1689,"EPHEMERIS_TYPE":0,"CLASSIFICATION_TYPE":"U","NORAD_CAT_ID":43564,"ELEMENT_SET_NO":999,"REV_AT_EPOCH":4731,"BSTAR":0,"MEAN_MOTION_DOT":-1.05e-6,"MEAN_MOTION_DDOT":0},{"OBJECT_NAME":"GSAT0222 (GALILEO 26)","OBJECT_ID":"2018-060B","EPOCH":"2026-02-24T15:50:30.088608","MEAN_MOTION":1.70474973,"ECCENTRICITY":0.0004435,"INCLINATION":57.2093,"RA_OF_ASC_NODE":344.8256,"ARG_OF_PERICENTER":285.482,"MEAN_ANOMALY":74.4799,"EPHEMERIS_TYPE":0,"CLASSIFICATION_TYPE":"U","NORAD_CAT_ID":43565,"ELEMENT_SET_NO":999,"REV_AT_EPOCH":4729,"BSTAR":0,"MEAN_MOTION_DOT":-9.2e-7,"MEAN_MOTION_DDOT":0},{"OBJECT_NAME":"GSAT0219 (GALILEO 23)","OBJECT_ID":"2018-060C","EPOCH":"2026-02-22T12:50:02.521824","MEAN_MOTION":1.70475208,"ECCENTRICITY":0.0005774,"INCLINATION":57.2094,"RA_OF_ASC_NODE":344.8846,"ARG_OF_PERICENTER":308.6957,"MEAN_ANOMALY":51.2673,"EPHEMERIS_TYPE":0,"CLASSIFICATION_TYPE":"U","NORAD_CAT_ID":43566,"ELEMENT_SET_NO":999,"REV_AT_EPOCH":4723,"BSTAR":0,"MEAN_MOTION_DOT":-8.2e-7,"MEAN_MOTION_DDOT":0},{"OBJECT_NAME":"GSAT0220 (GALILEO 24)","OBJECT_ID":"2018-060D","EPOCH":"2026-02-27T10:45:41.962176","MEAN_MOTION":1.70475159,"ECCENTRICITY":0.0005301,"INCLINATION":57.2075,"RA_OF_ASC_NODE":344.7516,"ARG_OF_PERICENTER":308.5821,"MEAN_ANOMALY":51.3768,"EPHEMERIS_TYPE":0,"CLASSIFICATION_TYPE":"U","NORAD_CAT_ID":43567,"ELEMENT_SET_NO":999,"REV_AT_EPOCH":4730,"BSTAR":0,"MEAN_MOTION_DOT":-1.02e-6,"MEAN_MOTION_DDOT":0},{"OBJECT_NAME":"GSAT0223 (GALILEO 27)","OBJECT_ID":"2021-116A","EPOCH":"2026-02-17T00:57:26.434656","MEAN_MOTION":1.70475508,"ECCENTRICITY":0.00028659,"INCLINATION":57.2005,"RA_OF_ASC_NODE":344.9238,"ARG_OF_PERICENTER":278.195,"MEAN_ANOMALY":264.6358,"EPHEMERIS_TYPE":0,"CLASSIFICATION_TYPE":"U","NORAD_CAT_ID":49809,"ELEMENT_SET_NO":999,"REV_AT_EPOCH":2613,"BSTAR":0,"MEAN_MOTION_DOT":-7.8e-7,"MEAN_MOTION_DDOT":0},{"OBJECT_NAME":"GSAT0224 (GALILEO 28)","OBJECT_ID":"2021-116B","EPOCH":"2026-02-23T21:29:03.517440","MEAN_MOTION":1.70475193,"ECCENTRICITY":0.00021827,"INCLINATION":57.1984,"RA_OF_ASC_NODE":344.7369,"ARG_OF_PERICENTER":291.9502,"MEAN_ANOMALY":250.7131,"EPHEMERIS_TYPE":0,"CLASSIFICATION_TYPE":"U","NORAD_CAT_ID":49810,"ELEMENT_SET_NO":999,"REV_AT_EPOCH":2627,"BSTAR":0,"MEAN_MOTION_DOT":-8.8e-7,"MEAN_MOTION_DDOT":0},{"OBJECT_NAME":"GSAT0225 (GALILEO 29)","OBJECT_ID":"2024-079A","EPOCH":"2026-03-03T05:34:38.680896","MEAN_MOTION":1.70474849,"ECCENTRICITY":0.00025321,"INCLINATION":55.0491,"RA_OF_ASC_NODE":104.04,"ARG_OF_PERICENTER":257.0391,"MEAN_ANOMALY":101.558,"EPHEMERIS_TYPE":0,"CLASSIFICATION_TYPE":"U","NORAD_CAT_ID":59598,"ELEMENT_SET_NO":999,"REV_AT_EPOCH":1150,"BSTAR":0,"MEAN_MOTION_DOT":1.3e-7,"MEAN_MOTION_DDOT":0},{"OBJECT_NAME":"GSAT0227 (GALILEO 30)","OBJECT_ID":"2024-079C","EPOCH":"2026-03-01T01:43:30.970272","MEAN_MOTION":1.70474778,"ECCENTRICITY":4.154e-5,"INCLINATION":55.0426,"RA_OF_ASC_NODE":104.0995,"ARG_OF_PERICENTER":85.7874,"MEAN_ANOMALY":274.2997,"EPHEMERIS_TYPE":0,"CLASSIFICATION_TYPE":"U","NORAD_CAT_ID":59600,"ELEMENT_SET_NO":999,"REV_AT_EPOCH":1152,"BSTAR":0,"MEAN_MOTION_DOT":1.0e-7,"MEAN_MOTION_DDOT":0},{"OBJECT_NAME":"GSAT0232 (GALILEO 32)","OBJECT_ID":"2024-167A","EPOCH":"2026-02-17T15:52:34.088160","MEAN_MOTION":1.70443939,"ECCENTRICITY":0.00036004,"INCLINATION":55.2225,"RA_OF_ASC_NODE":224.5881,"ARG_OF_PERICENTER":296.6314,"MEAN_ANOMALY":116.1306,"EPHEMERIS_TYPE":0,"CLASSIFICATION_TYPE":"U","NORAD_CAT_ID":61182,"ELEMENT_SET_NO":999,"REV_AT_EPOCH":826,"BSTAR":0,"MEAN_MOTION_DOT":6.9e-7,"MEAN_MOTION_DDOT":0},{"OBJECT_NAME":"GSAT0226 (GALILEO 31)","OBJECT_ID":"2024-167B","EPOCH":"2026-03-02T09:59:45.466080","MEAN_MOTION":1.7047413,"ECCENTRICITY":0.00016109,"INCLINATION":55.2184,"RA_OF_ASC_NODE":224.2466,"ARG_OF_PERICENTER":129.2375,"MEAN_ANOMALY":282.9718,"EPHEMERIS_TYPE":0,"CLASSIFICATION_TYPE":"U","NORAD_CAT_ID":61183,"ELEMENT_SET_NO":999,"REV_AT_EPOCH":903,"BSTAR":0,"MEAN_MOTION_DOT":1.1e-7,"MEAN_MOTION_DDOT":0},{"OBJECT_NAME":"GSAT0233 (GALILEO 33)","OBJECT_ID":"2025-302A","EPOCH":"2026-02-13T12:00:00.000000","MEAN_MOTION":1.70474578,"ECCENTRICITY":0.00030114,"INCLINATION":54.3935,"RA_OF_ASC_NODE":105.2952,"ARG_OF_PERICENTER":207.0582,"MEAN_ANOMALY":359.4109,"EPHEMERIS_TYPE":0,"CLASSIFICATION_TYPE":"U","NORAD_CAT_ID":67160,"ELEMENT_SET_NO":999,"REV_AT_EPOCH":2,"BSTAR":0,"MEAN_MOTION_DOT":-8.0e-8,"MEAN_MOTION_DDOT":0},{"OBJECT_NAME":"GSAT0234 (GALILEO 34)","OBJECT_ID":"2025-302C","EPOCH":"2026-02-13T12:00:00.000000","MEAN_MOTION":1.70475065,"ECCENTRICITY":0.00030814,"INCLINATION":54.3967,"RA_OF_ASC_NODE":105.2938,"ARG_OF_PERICENTER":266.8423,"MEAN_ANOMALY":119.7309,"EPHEMERIS_TYPE":0,"CLASSIFICATION_TYPE":"U","NORAD_CAT_ID":67162,"ELEMENT_SET_NO":999,"REV_AT_EPOCH":12,"BSTAR":0,"MEAN_MOTION_DOT":-8.0e-8,"MEAN_MOTION_DDOT":0}]
